[
  {
    "OBJECT_NAME": "STARLINK-30511",
    "OBJECT_ID": "23151Q",
    "EPOCH": "2025-11-11T06:30:33.587712",
    "MEAN_MOTION": 15.02567477,
    "ECCENTRICITY": 0.0001412,
    "INCLINATION": 43.0046,
    "RA_OF_ASC_NODE": 275.5411,
    "ARG_OF_PERICENTER": 273.2662,
    "MEAN_ANOMALY": 86.8019,
    "EPHEMERIS_TYPE": 0,
    "CLASSIFICATION_TYPE": "U",
    "NORAD_CAT_ID": 57978,
    "ELEMENT_SET_NO": 999,
    "REV_AT_EPOCH": 11776,
    "BSTAR": 0.00024944,
    "MEAN_MOTION_DOT": 3.17e-05,
    "MEAN_MOTION_DDOT": 0.0,
    "TLE_LINE1": "1 57978U 23151Q   25315.27122208  .00003170  00000+0  24944-3 0  9994",
    "TLE_LINE2": "2 57978  43.0046 275.5411 0001412 273.2662  86.8019 15.02567477117764",
    "COMMENT": "Grouped by shell and plane from TLE"
  },
  {
    "OBJECT_NAME": "STARLINK-30508",
    "OBJECT_ID": "23151R",
    "EPOCH": "2025-11-11T06:25:48.482400",
    "MEAN_MOTION": 15.02543401,
    "ECCENTRICITY": 9.19e-05,
    "INCLINATION": 43.0031,
    "RA_OF_ASC_NODE": 275.507,
    "ARG_OF_PERICENTER": 316.5079,
    "MEAN_ANOMALY": 43.5691,
    "EPHEMERIS_TYPE": 0,
    "CLASSIFICATION_TYPE": "U",
    "NORAD_CAT_ID": 57979,
    "ELEMENT_SET_NO": 999,
    "REV_AT_EPOCH": 11776,
    "BSTAR": 0.00021175,
    "MEAN_MOTION_DOT": 2.659e-05,
    "MEAN_MOTION_DDOT": 0.0,
    "TLE_LINE1": "1 57979U 23151R   25315.26792225  .00002659  00000+0  21175-3 0  9990",
    "TLE_LINE2": "2 57979  43.0031 275.5070 0000919 316.5079  43.5691 15.02543401117761",
    "COMMENT": "Grouped by shell and plane from TLE"
  },
  {
    "OBJECT_NAME": "STARLINK-30510",
    "OBJECT_ID": "23151T",
    "EPOCH": "2025-11-11T06:21:01.039104",
    "MEAN_MOTION": 15.02533261,
    "ECCENTRICITY": 0.0001149,
    "INCLINATION": 43.0043,
    "RA_OF_ASC_NODE": 275.4912,
    "ARG_OF_PERICENTER": 267.1359,
    "MEAN_ANOMALY": 92.9351,
    "EPHEMERIS_TYPE": 0,
    "CLASSIFICATION_TYPE": "U",
    "NORAD_CAT_ID": 57981,
    "ELEMENT_SET_NO": 999,
    "REV_AT_EPOCH": 11776,
    "BSTAR": 0.00010027,
    "MEAN_MOTION_DOT": 1.151e-05,
    "MEAN_MOTION_DDOT": 0.0,
    "TLE_LINE1": "1 57981U 23151T   25315.26459536  .00001151  00000+0  10027-3 0  9998",
    "TLE_LINE2": "2 57981  43.0043 275.4912 0001149 267.1359  92.9351 15.02533261117763",
    "COMMENT": "Grouped by shell and plane from TLE"
  },
  {
    "OBJECT_NAME": "STARLINK-30507",
    "OBJECT_ID": "23151U",
    "EPOCH": "2025-11-11T06:16:13.160352",
    "MEAN_MOTION": 15.02550114,
    "ECCENTRICITY": 0.000164,
    "INCLINATION": 43.0062,
    "RA_OF_ASC_NODE": 275.4663,
    "ARG_OF_PERICENTER": 268.7839,
    "MEAN_ANOMALY": 91.2815,
    "EPHEMERIS_TYPE": 0,
    "CLASSIFICATION_TYPE": "U",
    "NORAD_CAT_ID": 57982,
    "ELEMENT_SET_NO": 999,
    "REV_AT_EPOCH": 11776,
    "BSTAR": 0.0,
    "MEAN_MOTION_DOT": -1.38e-05,
    "MEAN_MOTION_DDOT": 0.0,
    "TLE_LINE1": "1 57982U 23151U   25315.26126343 -.00001380  00000+0 -87060-4 0  9994",
    "TLE_LINE2": "2 57982  43.0062 275.4663 0001640 268.7839  91.2815 15.02550114117767",
    "COMMENT": "Grouped by shell and plane from TLE"
  },
  {
    "OBJECT_NAME": "STARLINK-30515",
    "OBJECT_ID": "23151V",
    "EPOCH": "2025-11-11T06:11:25.609920",
    "MEAN_MOTION": 15.025513,
    "ECCENTRICITY": 4.83e-05,
    "INCLINATION": 43.0046,
    "RA_OF_ASC_NODE": 275.4395,
    "ARG_OF_PERICENTER": 288.139,
    "MEAN_ANOMALY": 71.94,
    "EPHEMERIS_TYPE": 0,
    "CLASSIFICATION_TYPE": "U",
    "NORAD_CAT_ID": 57983,
    "ELEMENT_SET_NO": 999,
    "REV_AT_EPOCH": 11776,
    "BSTAR": 8.5717e-05,
    "MEAN_MOTION_DOT": 9.55e-06,
    "MEAN_MOTION_DDOT": 0.0,
    "TLE_LINE1": "1 57983U 23151V   25315.25793530  .00000955  00000+0  85717-4 0  9994",
    "TLE_LINE2": "2 57983  43.0046 275.4395 0000483 288.1390  71.9400 15.02551300117767",
    "COMMENT": "Grouped by shell and plane from TLE"
  },
  {
    "OBJECT_NAME": "STARLINK-30516",
    "OBJECT_ID": "23151W",
    "EPOCH": "2025-11-11T06:06:39.009024",
    "MEAN_MOTION": 15.0251875,
    "ECCENTRICITY": 8.49e-05,
    "INCLINATION": 43.0024,
    "RA_OF_ASC_NODE": 275.4153,
    "ARG_OF_PERICENTER": 252.9194,
    "MEAN_ANOMALY": 107.1555,
    "EPHEMERIS_TYPE": 0,
    "CLASSIFICATION_TYPE": "U",
    "NORAD_CAT_ID": 57984,
    "ELEMENT_SET_NO": 999,
    "REV_AT_EPOCH": 11776,
    "BSTAR": 0.0,
    "MEAN_MOTION_DOT": -1.715e-05,
    "MEAN_MOTION_DDOT": 0.0,
    "TLE_LINE1": "1 57984U 23151W   25315.25461816 -.00001715  00000+0 -11201-3 0  9997",
    "TLE_LINE2": "2 57984  43.0024 275.4153 0000849 252.9194 107.1555 15.02518750117768",
    "COMMENT": "Grouped by shell and plane from TLE"
  },
  {
    "OBJECT_NAME": "STARLINK-30519",
    "OBJECT_ID": "23151X",
    "EPOCH": "2025-11-11T06:01:50.535840",
    "MEAN_MOTION": 15.0254236,
    "ECCENTRICITY": 8.32e-05,
    "INCLINATION": 43.0034,
    "RA_OF_ASC_NODE": 275.3889,
    "ARG_OF_PERICENTER": 262.0598,
    "MEAN_ANOMALY": 98.015,
    "EPHEMERIS_TYPE": 0,
    "CLASSIFICATION_TYPE": "U",
    "NORAD_CAT_ID": 57985,
    "ELEMENT_SET_NO": 999,
    "REV_AT_EPOCH": 11770,
    "BSTAR": 2.2886e-05,
    "MEAN_MOTION_DOT": 1.06e-06,
    "MEAN_MOTION_DDOT": 0.0,
    "TLE_LINE1": "1 57985U 23151X   25315.25127935  .00000106  00000+0  22886-4 0  9992",
    "TLE_LINE2": "2 57985  43.0034 275.3889 0000832 262.0598  98.0150 15.02542360117704",
    "COMMENT": "Grouped by shell and plane from TLE"
  },
  {
    "OBJECT_NAME": "STARLINK-30907",
    "OBJECT_ID": "23177B",
    "EPOCH": "2025-11-11T05:41:06.084672",
    "MEAN_MOTION": 15.02564656,
    "ECCENTRICITY": 0.0001282,
    "INCLINATION": 43.004,
    "RA_OF_ASC_NODE": 275.5396,
    "ARG_OF_PERICENTER": 276.9714,
    "MEAN_ANOMALY": 83.0983,
    "EPHEMERIS_TYPE": 0,
    "CLASSIFICATION_TYPE": "U",
    "NORAD_CAT_ID": 58352,
    "ELEMENT_SET_NO": 999,
    "REV_AT_EPOCH": 11048,
    "BSTAR": 0.0,
    "MEAN_MOTION_DOT": -3.995e-05,
    "MEAN_MOTION_DDOT": 0.0,
    "TLE_LINE1": "1 58352U 23177B   25315.23687598 -.00003995  00000+0 -28061-3 0  9994",
    "TLE_LINE2": "2 58352  43.0040 275.5396 0001282 276.9714  83.0983 15.02564656110487",
    "COMMENT": "Grouped by shell and plane from TLE"
  },
  {
    "OBJECT_NAME": "STARLINK-30832",
    "OBJECT_ID": "23177D",
    "EPOCH": "2025-11-11T06:22:28.988256",
    "MEAN_MOTION": 15.02546223,
    "ECCENTRICITY": 9.33e-05,
    "INCLINATION": 43.0037,
    "RA_OF_ASC_NODE": 274.9053,
    "ARG_OF_PERICENTER": 277.2883,
    "MEAN_ANOMALY": 82.7853,
    "EPHEMERIS_TYPE": 0,
    "CLASSIFICATION_TYPE": "U",
    "NORAD_CAT_ID": 58354,
    "ELEMENT_SET_NO": 999,
    "REV_AT_EPOCH": 11035,
    "BSTAR": 0.00026233,
    "MEAN_MOTION_DOT": 3.343e-05,
    "MEAN_MOTION_DDOT": 0.0,
    "TLE_LINE1": "1 58354U 23177D   25315.26561329  .00003343  00000+0  26233-3 0  9996",
    "TLE_LINE2": "2 58354  43.0037 274.9053 0000933 277.2883  82.7853 15.02546223110359",
    "COMMENT": "Grouped by shell and plane from TLE"
  },
  {
    "OBJECT_NAME": "STARLINK-30903",
    "OBJECT_ID": "23177E",
    "EPOCH": "2025-11-10T21:53:40.441632",
    "MEAN_MOTION": 15.0252783,
    "ECCENTRICITY": 0.0001102,
    "INCLINATION": 43.0047,
    "RA_OF_ASC_NODE": 277.4178,
    "ARG_OF_PERICENTER": 255.2001,
    "MEAN_ANOMALY": 104.8719,
    "EPHEMERIS_TYPE": 0,
    "CLASSIFICATION_TYPE": "U",
    "NORAD_CAT_ID": 58355,
    "ELEMENT_SET_NO": 999,
    "REV_AT_EPOCH": 11034,
    "BSTAR": 0.00032332,
    "MEAN_MOTION_DOT": 4.166e-05,
    "MEAN_MOTION_DDOT": 0.0,
    "TLE_LINE1": "1 58355U 23177E   25314.91227363  .00004166  00000+0  32332-3 0  9996",
    "TLE_LINE2": "2 58355  43.0047 277.4178 0001102 255.2001 104.8719 15.02527830110343",
    "COMMENT": "Grouped by shell and plane from TLE"
  },
  {
    "OBJECT_NAME": "STARLINK-30905",
    "OBJECT_ID": "23177F",
    "EPOCH": "2025-11-11T05:34:42.580992",
    "MEAN_MOTION": 15.02535955,
    "ECCENTRICITY": 9.43e-05,
    "INCLINATION": 43.0057,
    "RA_OF_ASC_NODE": 275.4853,
    "ARG_OF_PERICENTER": 263.0909,
    "MEAN_ANOMALY": 96.9826,
    "EPHEMERIS_TYPE": 0,
    "CLASSIFICATION_TYPE": "U",
    "NORAD_CAT_ID": 58356,
    "ELEMENT_SET_NO": 999,
    "REV_AT_EPOCH": 11033,
    "BSTAR": 4.9326e-05,
    "MEAN_MOTION_DOT": 4.63e-06,
    "MEAN_MOTION_DDOT": 0.0,
    "TLE_LINE1": "1 58356U 23177F   25315.23243728  .00000463  00000+0  49326-4 0  9994",
    "TLE_LINE2": "2 58356  43.0057 275.4853 0000943 263.0909  96.9826 15.02535955110335",
    "COMMENT": "Grouped by shell and plane from TLE"
  },
  {
    "OBJECT_NAME": "STARLINK-30858",
    "OBJECT_ID": "23177H",
    "EPOCH": "2025-11-11T05:42:41.793408",
    "MEAN_MOTION": 15.02572318,
    "ECCENTRICITY": 0.0001068,
    "INCLINATION": 43.003,
    "RA_OF_ASC_NODE": 275.56,
    "ARG_OF_PERICENTER": 284.4277,
    "MEAN_ANOMALY": 75.6446,
    "EPHEMERIS_TYPE": 0,
    "CLASSIFICATION_TYPE": "U",
    "NORAD_CAT_ID": 58358,
    "ELEMENT_SET_NO": 999,
    "REV_AT_EPOCH": 11040,
    "BSTAR": 0.0,
    "MEAN_MOTION_DOT": -5.741e-05,
    "MEAN_MOTION_DDOT": 0.0,
    "TLE_LINE1": "1 58358U 23177H   25315.23798372 -.00005741  00000+0 -40987-3 0  9995",
    "TLE_LINE2": "2 58358  43.0030 275.5600 0001068 284.4277  75.6446 15.02572318110407",
    "COMMENT": "Grouped by shell and plane from TLE"
  },
  {
    "OBJECT_NAME": "STARLINK-30878",
    "OBJECT_ID": "23177J",
    "EPOCH": "2025-11-11T06:14:29.706720",
    "MEAN_MOTION": 15.02527828,
    "ECCENTRICITY": 0.0001289,
    "INCLINATION": 43.0042,
    "RA_OF_ASC_NODE": 274.8633,
    "ARG_OF_PERICENTER": 266.6473,
    "MEAN_ANOMALY": 93.4222,
    "EPHEMERIS_TYPE": 0,
    "CLASSIFICATION_TYPE": "U",
    "NORAD_CAT_ID": 58359,
    "ELEMENT_SET_NO": 999,
    "REV_AT_EPOCH": 11040,
    "BSTAR": 0.00033663,
    "MEAN_MOTION_DOT": 4.346e-05,
    "MEAN_MOTION_DDOT": 0.0,
    "TLE_LINE1": "1 58359U 23177J   25315.26006605  .00004346  00000+0  33663-3 0  9991",
    "TLE_LINE2": "2 58359  43.0042 274.8633 0001289 266.6473  93.4222 15.02527828110400",
    "COMMENT": "Grouped by shell and plane from TLE"
  }
]